OBJECT_NAME,OBJECT_ID,EPOCH,MEAN_MOTION,ECCENTRICITY,INCLINATION,RA_OF_ASC_NODE,ARG_OF_PERICENTER,MEAN_ANOMALY,EPHEMERIS_TYPE,CLASSIFICATION_TYPE,NORAD_CAT_ID,ELEMENT_SET_NO,REV_AT_EPOCH,BSTAR,MEAN_MOTION_DOT,MEAN_MOTION_DDOT
ZHONGXING-2C,2015-063A,2026-06-10T12:04:15.845952,1.00274320,.0007455,0.2554,90.1143,97.5928,355.6508,0,U,41021,999,3891,0,-.306E-5,0
GSAT-15,2015-065A,2026-06-09T08:38:55.419360,1.00270540,.00039233,0.0513,110.7137,328.9417,41.3237,0,U,41028,999,3872,0,-.241E-5,0
BADR-7 (ARABSAT-6B),2015-065B,2026-06-10T06:34:09.954048,1.00271133,.000346,0.0347,234.0738,324.8639,184.2264,0,U,41029,999,3869,0,.162E-5,0
LAOSAT 1,2015-067A,2026-06-10T11:59:38.502816,1.00273012,.0002395,0.0394,177.6608,217.2310,172.3915,0,U,41034,999,3879,0,-.325E-5,0
TELSTAR 12V,2015-068A,2026-06-09T09:50:41.254080,1.00271046,.0002305,0.0235,65.7170,10.9367,313.8139,0,U,41036,999,3854,0,-.102E-5,0
ELEKTRO-L 2,2015-074A,2026-06-10T01:14:32.122752,1.00271662,.00008802,6.6749,70.6113,278.5236,273.4303,0,U,41105,999,3843,0,-.102E-5,0
COSMOS 2513,2015-075A,2026-06-10T10:15:01.508256,1.00273333,.0003425,0.0777,99.3038,332.1412,61.3623,0,U,41121,999,3848,0,-.121E-5,0
EXPRESS-AMU1,2015-082A,2026-06-10T06:37:09.666912,1.00270530,.0002669,0.0188,3.5258,78.6011,311.8922,0,U,41191,999,3819,0,.173E-5,0
GAOFEN-4,2015-083A,2026-06-10T12:05:00.773952,1.00272363,.0004251,0.3392,83.8287,113.0883,348.9109,0,U,41194,999,3846,0,-.317E-5,0
BELINTERSAT-1,2016-001A,2026-06-10T03:16:13.365984,1.00269866,.000198,0.0478,120.9515,284.9357,313.1696,0,U,41238,999,3816,0,.125E-5,0
IRNSS-1E,2016-003A,2026-06-09T15:34:40.861056,1.00268584,.00179263,33.2186,59.8594,179.3195,4.1979,0,U,41241,999,3800,0,-.299E-5,0
EUTELSAT 9B,2016-005A,2026-06-10T08:12:05.853888,1.00272764,.0001731,0.0631,72.9717,333.8465,343.9040,0,U,41310,999,3804,0,.79E-6,0
SES-9,2016-013A,2026-06-09T01:52:23.570976,1.00273663,.000199,0.0108,336.9667,107.7708,309.1219,0,U,41380,999,3735,0,-.329E-5,0
EUTELSAT 65 WEST A,2016-014A,2026-06-10T07:50:52.888128,1.00271726,.000219,0.0510,11.8067,57.7184,241.7028,0,U,41382,999,3745,0,-.259E-5,0
IRNSS-1F,2016-015A,2026-06-10T01:28:13.010880,1.00279064,.00165706,5.3311,96.9420,186.6626,29.4952,0,U,41384,999,3759,0,.175E-5,0
BEIDOU-2 IGSO-6,2016-021A,2026-06-08T23:55:01.304832,1.00261117,.00571186,60.2137,38.1225,231.5364,79.8340,0,U,41434,999,3739,0,-.154E-5,0
IRNSS-1G,2016-027A,2026-06-10T07:03:48.892032,1.00269562,.0007507,5.1812,97.6325,353.2173,43.3330,0,U,41469,999,3711,0,-.317E-5,0
JCSAT-2B,2016-028A,2026-06-09T17:29:31.419168,1.00269565,.0000778,0.0181,343.7786,117.9993,212.7061,0,U,41471,999,3705,0,-.148E-5,0
THAICOM 8,2016-031A,2026-06-10T10:58:38.906400,1.00270144,.0003618,0.0698,48.3134,9.6365,84.0609,0,U,41552,999,3665,0,-.104E-5,0
INTELSAT 31 (IS-31),2016-035A,2026-06-10T07:42:23.701824,1.00269745,.0000993,0.0167,265.7564,337.3759,36.1033,0,U,41581,999,3661,0,-.133E-5,0
BEIDOU-2 G7,2016-037A,2026-06-10T12:06:00.679392,1.00267770,.0007124,1.7022,69.2563,3.1499,118.4785,0,U,41586,999,682,0,-.336E-5,0
ABS-2A (MONGOLSAT-1),2016-038A,2026-06-09T20:32:10.142016,1.00267595,.0001258,0.0180,325.8688,57.0366,258.1105,0,U,41588,999,3663,0,0,0
EUTELSAT 117 WEST B,2016-038B,2026-06-09T00:48:06.000192,1.00276750,.00003453,0.0422,159.6913,138.3370,214.4010,0,U,41589,999,3658,0,.4E-7,0
BRISAT,2016-039A,2026-06-09T22:36:28.785312,1.00268701,.00019949,0.0231,320.1453,118.8641,308.9105,0,U,41591,999,3653,0,0,0
ECHOSTAR 18,2016-039B,2026-06-09T01:04:05.071296,1.00271708,.00013931,0.0178,340.8727,102.1330,129.0878,0,U,41592,999,3654,0,-.265E-5,0
MUOS-5,2016-041A,2026-06-10T06:23:38.662080,1.00271130,.0197058,2.2194,301.5061,260.8833,46.9153,0,U,41622,999,3701,0,-.96E-6,0
TIANTONG-1 1,2016-048A,2026-06-10T12:03:45.892800,1.00269871,.0005958,3.8358,43.3531,43.8807,93.9893,0,U,41725,999,3620,0,-.302E-5,0
JCSAT-16,2016-050A,2026-06-09T05:27:58.431168,1.00270108,.0000921,0.0177,356.2594,90.5519,36.7275,0,U,41729,999,3599,0,-.234E-5,0
USA 270,2016-052A,2026-06-08T02:16:56.129376,1.00284145,.0008515,4.1755,77.3049,337.9683,59.8197,0,U,41744,999,2804,0,.95E-6,0
USA 271,2016-052B,2026-06-07T19:08:42.969984,1.00262239,.0010783,4.1460,77.3775,157.2143,71.4983,0,U,41745,999,2782,0,-.344E-5,0
INTELSAT 36 (IS-36),2016-053A,2026-06-10T11:14:38.628096,1.00270442,.0001854,0.0115,359.4493,334.1187,162.4139,0,U,41747,999,3589,0,-.7E-7,0
INSAT-3DR,2016-054A,2026-06-10T10:58:38.906400,1.00270374,.0010512,0.0879,87.3314,186.7602,223.3726,0,U,41752,999,3575,0,-.59E-6,0
